OBJECT_NAME,OBJECT_ID,EPOCH,MEAN_MOTION,ECCENTRICITY,INCLINATION,RA_OF_ASC_NODE,ARG_OF_PERICENTER,MEAN_ANOMALY,EPHEMERIS_TYPE,CLASSIFICATION_TYPE,NORAD_CAT_ID,ELEMENT_SET_NO,REV_AT_EPOCH,BSTAR,MEAN_MOTION_DOT,MEAN_MOTION_DDOT
STARLINK-4621,2022-105AE,2026-07-14T15:05:00.224448,15.05657449,.00017361,97.2833,73.2066,93.3539,266.7887,0,U,53676,999,21233,-.11970881E-4,-.229E-5,0
SHERPA-LTC2,2022-107BG,2026-07-14T10:53:51.425088,14.69914994,.03928365,53.2368,104.8874,302.6373,53.7262,0,U,53754,999,20655,.12009761E-3,.2106E-4,0
CENTISPACE-1 S3,2022-108A,2026-07-14T18:32:24.974592,14.61282969,.00107454,53.5337,301.1901,63.6498,296.5580,0,U,53757,999,20556,.61759067E-4,.117E-5,0
CENTISPACE-1 S4,2022-108B,2026-07-14T21:08:03.088320,14.61971729,.0010049,53.5312,298.1291,53.3180,306.8717,0,U,53758,999,20561,.66899186E-4,.147E-5,0
BLUEWALKER-3,2022-111AL,2026-07-14T11:09:18.021024,15.38604732,.00045555,53.2288,265.8794,263.3049,96.7438,0,U,53807,999,21440,.10856871E-3,.3807E-4,0
YUNHAI-1 03,2022-115A,2026-07-14T23:34:51.563136,14.32736532,.00041637,98.5544,193.7781,340.1503,19.9518,0,U,53877,999,19949,.93705282E-4,.211E-5,0
CENTISPACE-1 S5,2022-126A,2026-07-14T21:22:37.004448,14.63056467,.00143949,54.9989,102.0953,123.8797,236.3569,0,U,54020,999,20109,.10992734E-3,.379E-5,0
CENTISPACE-1 S6,2022-126B,2026-07-14T21:32:47.645088,14.62316532,.00162007,54.9992,104.0623,125.0922,235.1593,0,U,54021,999,20105,.90769063E-4,.273E-5,0
OTB-3-GAZELLE,2022-127A,2026-07-14T12:35:34.012608,14.42683859,.00144326,98.3960,186.8146,104.8096,255.4694,0,U,54023,999,19830,.31660824E-4,.62E-6,0
ASO-S,2022-129A,2026-07-14T22:54:47.043360,14.52074811,.00145843,98.2756,200.6385,12.9980,347.1588,0,U,54029,999,19945,.34627144E-4,.96E-6,0
HJ-2E,2022-132A,2026-07-14T22:54:07.185312,15.22692602,.00180238,97.3799,199.8383,271.3976,88.5196,0,U,54035,999,20864,.19176083E-3,.4416E-4,0
COSMOS 2561,2022-137A,2026-07-14T21:15:34.545600,15.52368842,.0008172,96.9173,253.8605,282.2369,77.7970,0,U,54109,999,21064,.13576E-3,.8194E-4,0
GONETS-M 23,2022-139A,2026-07-14T22:53:21.480576,12.42891885,.00221247,82.5094,331.0383,158.9910,201.2084,0,U,54150,999,16909,-.13494749E-4,.8E-7,0
GONETS-M 24,2022-139B,2026-07-14T22:14:33.952704,12.42892484,.00171952,82.5011,330.0959,168.6406,191.5066,0,U,54151,999,16909,.19400617E-4,.13E-6,0
GONETS-M 25,2022-139C,2026-07-14T21:55:01.758720,12.42890892,.00211278,82.5076,330.8056,167.6783,192.4818,0,U,54152,999,16909,.75463167E-4,.2E-6,0
SKIF-D,2022-139D,2026-07-14T00:54:52.710912,5.00430515,.00074336,89.9492,96.6605,188.0106,172.0487,0,U,54153,999,6545,0,.11E-6,0
MATS,2022-147A,2026-07-14T21:34:27.761088,15.05501106,.00141099,97.6828,197.3784,104.2140,256.0655,0,U,54227,999,20193,.11506829E-3,.1595E-4,0
EOS-6 (OCEANSAT-3),2022-158A,2026-07-14T23:03:22.927392,14.46984261,.00004035,98.3550,293.7873,143.2919,216.8301,0,U,54361,999,19185,.40156536E-4,.102E-5,0
DONGPO 09,2022-167D,2026-07-14T22:55:29.294688,15.36930577,.00028114,97.6913,8.2169,53.2701,306.8800,0,U,54685,999,19971,.19630243E-3,.7002E-4,0
DONGPO 08,2022-167E,2026-07-14T23:38:13.447968,15.34181413,.00092546,97.6878,5.2931,74.6157,285.6107,0,U,54686,999,19958,.18287798E-3,.5972E-4,0
2022-167F,2022-167F,2026-07-14T19:35:31.974720,16.18054692,.00074722,97.5972,27.5754,250.8301,109.2177,0,U,54687,999,20125,.69890428E-3,.113847E-1,.2541315E-5
DONGPO 10,2022-167H,2026-07-14T23:26:35.137248,15.34998081,.00049829,97.6959,7.3021,29.0615,331.0904,0,U,54689,999,19962,.18251927E-3,.6112E-4,0
JILIN-1 GAOFEN 03D48,2022-167P,2026-07-14T23:02:58.721568,15.35789949,.0006482,97.6894,6.6729,31.0626,329.0999,0,U,54695,999,19965,.19138405E-3,.658E-4,0
STAR VIBE,2023-001A,2026-07-14T23:47:48.498720,15.43350015,.00055216,97.3158,260.5796,31.9425,328.2157,0,U,55009,999,19651,.19468319E-3,.8598E-4,0
BRO-8,2023-001C,2026-07-14T22:32:03.846624,15.50740373,.00048939,97.3189,261.5538,40.9799,319.1820,0,U,55011,999,19650,.36846914E-3,.21136E-3,0
CONNECTA T1.2,2023-001D,2026-07-14T18:28:17.576832,15.52862392,.00037565,97.3245,266.9869,8.2106,351.9207,0,U,55012,999,19682,.42165253E-3,.26117E-3,0
BIRKELAND,2023-001G,2026-07-14T22:49:34.538880,15.40535325,.00064311,97.3336,263.9986,21.9302,338.2219,0,U,55015,999,19662,.12750188E-3,.5094E-4,0
ION SCV-008,2023-001AU,2026-07-14T19:04:23.701728,15.28877068,.00131895,97.5723,292.5811,274.7434,85.2300,0,U,55051,999,19555,.12565506E-3,.3454E-4,0
ION SCV-007,2023-001BD,2026-07-14T18:14:23.983584,14.77575941,.00110503,97.8994,258.2262,243.7515,116.2560,0,U,55060,999,19032,.33340179E-4,.187E-5,0
HUYGENS,2023-001CN,2026-07-14T22:49:41.875104,15.40535361,.00084391,97.3241,263.1923,353.8653,6.2489,0,U,55093,999,19664,.13420171E-3,.5369E-4,0
