STARLINK-4621           
1 53676U 22105AE  26195.62847482 -.00000229  00000+0 -11971-4 0  9998
2 53676  97.2833  73.2066 0001736  93.3539 266.7887 15.05657449212335
SHERPA-LTC2             
1 53754U 22107BG  26195.45406742  .00002106  00000+0  12010-3 0  9996
2 53754  53.2368 104.8874 0392836 302.6373  53.7262 14.69914994206559
CENTISPACE-1 S3         
1 53757U 22108A   26195.77251128  .00000117  00000+0  61759-4 0  9996
2 53757  53.5337 301.1901 0010745  63.6498 296.5580 14.61282969205564
CENTISPACE-1 S4         
1 53758U 22108B   26195.88059130  .00000147  00000+0  66899-4 0  9991
2 53758  53.5312 298.1291 0010049  53.3180 306.8717 14.61971729205618
BLUEWALKER-3            
1 53807U 22111AL  26195.46479191  .00003807  00000+0  10857-3 0  9995
2 53807  53.2288 265.8794 0004555 263.3049  96.7438 15.38604732214407
YUNHAI-1 03             
1 53877U 22115A   26195.98254124  .00000211  00000+0  93705-4 0  9990
2 53877  98.5544 193.7781 0004163 340.1503  19.9518 14.32736532199494
CENTISPACE-1 S5         
1 54020U 22126A   26195.89070607  .00000379  00000+0  10993-3 0  9997
2 54020  54.9989 102.0953 0014394 123.8797 236.3569 14.63056467201093
CENTISPACE-1 S6         
1 54021U 22126B   26195.89777367  .00000273  00000+0  90769-4 0  9998
2 54021  54.9992 104.0623 0016200 125.0922 235.1593 14.62316532201057
OTB-3-GAZELLE           
1 54023U 22127A   26195.52469922  .00000062  00000+0  31661-4 0  9998
2 54023  98.3960 186.8146 0014432 104.8096 255.4694 14.42683859198303
ASO-S                   
1 54029U 22129A   26195.95471115  .00000096  00000+0  34627-4 0  9992
2 54029  98.2756 200.6385 0014584  12.9980 347.1588 14.52074811199451
HJ-2E                   
1 54035U 22132A   26195.95424983  .00004416  00000+0  19176-3 0  9995
2 54035  97.3799 199.8383 0018023 271.3976  88.5196 15.22692602208645
COSMOS 2561             
1 54109U 22137A   26195.88581650  .00008194  00000+0  13576-3 0  9994
2 54109  96.9173 253.8605 0008172 282.2369  77.7970 15.52368842210649
GONETS-M 23             
1 54150U 22139A   26195.95372084  .00000008  00000+0 -13495-4 0  9997
2 54150  82.5094 331.0383 0022124 158.9910 201.2084 12.42891885169090
GONETS-M 24             
1 54151U 22139B   26195.92678186  .00000013  00000+0  19401-4 0  9995
2 54151  82.5011 330.0959 0017195 168.6406 191.5066 12.42892484169095
GONETS-M 25             
1 54152U 22139C   26195.91321480  .00000020  00000+0  75463-4 0  9995
2 54152  82.5076 330.8056 0021127 167.6783 192.4818 12.42890892169096
SKIF-D                  
1 54153U 22139D   26195.03811008  .00000011  00000+0  00000+0 0  9999
2 54153  89.9492  96.6605 0007433 188.0106 172.0487  5.00430515 65456
MATS                    
1 54227U 22147A   26195.89893242  .00001595  00000+0  11507-3 0  9990
2 54227  97.6828 197.3784 0014109 104.2140 256.0655 15.05501106201936
EOS-6 (OCEANSAT-3)      
1 54361U 22158A   26195.96068203  .00000102  00000+0  40157-4 0  9997
2 54361  98.3550 293.7873 0000403 143.2919 216.8301 14.46984261191856
DONGPO 09               
1 54685U 22167D   26195.95520017  .00007002  00000+0  19630-3 0  9998
2 54685  97.6913   8.2169 0002811  53.2701 306.8800 15.36930577199719
DONGPO 08               
1 54686U 22167E   26195.98487787  .00005972  00000+0  18288-3 0  9990
2 54686  97.6878   5.2931 0009254  74.6157 285.6107 15.34181413199588
2022-167F               
1 54687U 22167F   26195.81634230  .01138470  25413-5  69890-3 0  9997
2 54687  97.5972  27.5754 0007472 250.8301 109.2177 16.18054692201259
DONGPO 10               
1 54689U 22167H   26195.97679557  .00006112  00000+0  18252-3 0  9998
2 54689  97.6959   7.3021 0004982  29.0615 331.0904 15.34998081199623
JILIN-1 GAOFEN 03D48    
1 54695U 22167P   26195.96040187  .00006580  00000+0  19138-3 0  9998
2 54695  97.6894   6.6729 0006482  31.0626 329.0999 15.35789949199653
STAR VIBE               
1 55009U 23001A   26195.99153355  .00008598  00000+0  19468-3 0  9998
2 55009  97.3158 260.5796 0005521  31.9425 328.2157 15.43350015196513
BRO-8                   
1 55011U 23001C   26195.93893341  .00021136  00000+0  36847-3 0  9994
2 55011  97.3189 261.5538 0004893  40.9799 319.1820 15.50740373196503
CONNECTA T1.2           
1 55012U 23001D   26195.76964788  .00026117  00000+0  42165-3 0  9994
2 55012  97.3245 266.9869 0003756   8.2106 351.9207 15.52862392196825
BIRKELAND               
1 55015U 23001G   26195.95109420  .00005094  00000+0  12750-3 0  9990
2 55015  97.3336 263.9986 0006431  21.9302 338.2219 15.40535325196628
ION SCV-008             
1 55051U 23001AU  26195.79471877  .00003454  00000+0  12566-3 0  9993
2 55051  97.5723 292.5811 0013189 274.7434  85.2300 15.28877068195557
ION SCV-007             
1 55060U 23001BD  26195.75999981  .00000187  00000+0  33340-4 0  9994
2 55060  97.8994 258.2262 0011050 243.7515 116.2560 14.77575941190321
HUYGENS                 
1 55093U 23001CN  26195.95117911  .00005369  00000+0  13420-3 0  9990
2 55093  97.3241 263.1923 0008439 353.8653   6.2489 15.40535361196641
